[{"OBJECT_NAME":"STARLINK-30109","OBJECT_ID":"2023-056N","EPOCH":"2026-03-09T22:00:01.999584","MEAN_MOTION":15.25380147,"ECCENTRICITY":0.00014702,"INCLINATION":42.9996,"RA_OF_ASC_NODE":207.3396,"ARG_OF_PERICENTER":277.6687,"MEAN_ANOMALY":214.2238,"EPHEMERIS_TYPE":0,"CLASSIFICATION_TYPE":"U","NORAD_CAT_ID":56298,"ELEMENT_SET_NO":999,"REV_AT_EPOCH":553,"BSTAR":0.034557724,"MEAN_MOTION_DOT":0.00964696,"MEAN_MOTION_DDOT":0},{"OBJECT_NAME":"FREGAT DEB","OBJECT_ID":"2011-037NP","EPOCH":"2026-03-04T10:37:24.073536","MEAN_MOTION":11.29539102,"ECCENTRICITY":0.18874903,"INCLINATION":51.4119,"RA_OF_ASC_NODE":94.1703,"ARG_OF_PERICENTER":115.556,"MEAN_ANOMALY":265.207,"EPHEMERIS_TYPE":0,"CLASSIFICATION_TYPE":"U","NORAD_CAT_ID":47332,"ELEMENT_SET_NO":999,"REV_AT_EPOCH":21212,"BSTAR":0.00027671275,"MEAN_MOTION_DOT":1.141e-5,"MEAN_MOTION_DDOT":0}]
